$$SOE
2460728.500000000, A.D. 2025-Feb-22 00:00:00.0000, -3.354597976297422E+08, 1.568295482213986E+08, -1.204902360899916E+07,
2460735.500000000, A.D. 2025-Mar-01 00:00:00.0000, -3.381998807513639E+08, 1.461597543255779E+08, -1.271824933667113E+07,
2460742.500000000, A.D. 2025-Mar-08 00:00:00.0000, -3.406122248453470E+08, 1.353483501477928E+08, -1.337514957017204E+07,
2460749.500000000, A.D. 2025-Mar-15 00:00:00.0000, -3.426893667369165E+08, 1.244037774581432E+08, -1.401888682249327E+07,
2460756.500000000, A.D. 2025-Mar-22 00:00:00.0000, -3.444239060832785E+08, 1.133348656716043E+08, -1.464860855089890E+07,
2460763.500000000, A.D. 2025-Mar-29 00:00:00.0000, -3.458085210072824E+08, 1.021508449611025E+08, -1.526344737041954E+07,
2460770.500000000, A.D. 2025-Apr-05 00:00:00.0000, -3.468359836031987E+08, 9.086136034522691E+07, -1.586252143400238E+07,
2460777.500000000, A.D. 2025-Apr-12 00:00:00.0000, -3.474991773582544E+08, 7.947648676435244E+07, -1.644493480589661E+07,
2460784.500000000, A.D. 2025-Apr-19 00:00:00.0000, -3.477911167996365E+08, 6.800674416751149E+07, -1.700977789689157E+07,
2460791.500000000, A.D. 2025-Apr-26 00:00:00.0000, -3.477049692118286E+08, 5.646311229694536E+07, -1.755612801655449E+07,
2460798.500000000, A.D. 2025-May-03 00:00:00.0000, -3.472340784219053E+08, 4.485704505823147E+07, -1.808305006473704E+07,
2460805.500000000, A.D. 2025-May-10 00:00:00.0000, -3.463719907332408E+08, 3.320048433063180E+07, -1.858959737811900E+07,
2460812.500000000, A.D. 2025-May-17 00:00:00.0000, -3.451124830776089E+08, 2.150587299989800E+07, -1.907481275313398E+07,
2460819.500000000, A.D. 2025-May-24 00:00:00.0000, -3.434495933140221E+08, 9.786166959104285E+06, -1.953772968109910E+07,
2460826.500000000, A.D. 2025-May-31 00:00:00.0000, -3.413776523511044E+08, -1.945153835815004E+06, -1.997737382453809E+07,
2460833.500000000, A.D. 2025-Jun-07 00:00:00.0000, -3.388913185770251E+08, -1.367407430151586E+07, -2.039276461605024E+07,
2460840.500000000, A.D. 2025-Jun-14 00:00:00.0000, -3.359856170312996E+08, -2.538603409956618E+07, -2.078291683469328E+07,
2460847.500000000, A.D. 2025-Jun-21 00:00:00.0000, -3.326559821576377E+08, -3.706592202391514E+07, -2.114684255724616E+07,
2460854.500000000, A.D. 2025-Jun-28 00:00:00.0000, -3.288983010413973E+08, -4.869807347019085E+07, -2.148355364495736E+07,
2460861.500000000, A.D. 2025-Jul-05 00:00:00.0000, -3.247089586432360E+08, -6.026626919018082E+07, -2.179206446638673E+07,
2460868.500000000, A.D. 2025-Jul-12 00:00:00.0000, -3.200848861799542E+08, -7.175373653073275E+07, -2.207139482859041E+07,
2460875.500000000, A.D. 2025-Jul-19 00:00:00.0000, -3.150236123893008E+08, -8.314315415479904E+07, -2.232057319716216E+07,
2460882.500000000, A.D. 2025-Jul-26 00:00:00.0000, -3.095233173499488E+08, -9.441666074557602E+07, -2.253864024363094E+07,
2460889.500000000, A.D. 2025-Aug-02 00:00:00.0000, -3.035828886154653E+08, -1.055558681366665E+08, -2.272465273623382E+07,
2460896.500000000, A.D. 2025-Aug-09 00:00:00.0000, -2.972019793997275E+08, -1.165418793651055E+08, -2.287768778617483E+07,
2460903.500000000, A.D. 2025-Aug-16 00:00:00.0000, -2.903810684285222E+08, -1.273553122040933E+08, -2.299684746694305E+07,
2460910.500000000, A.D. 2025-Aug-23 00:00:00.0000, -2.831215207802101E+08, -1.379763286555462E+08, -2.308126383328342E+07,
2460917.500000000, A.D. 2025-Aug-30 00:00:00.0000, -2.754256489183301E+08, -1.483846701777869E+08, -2.313010430746444E+07,
2460924.500000000, A.D. 2025-Sep-06 00:00:00.0000, -2.672967747750436E+08, -1.585596981187827E+08, -2.314257721058609E+07,
2460931.500000000, A.D. 2025-Sep-13 00:00:00.0000, -2.587392939025671E+08, -1.684804422786955E+08, -2.311793747158180E+07,
2460938.500000000, A.D. 2025-Sep-20 00:00:00.0000, -2.497587376730734E+08, -1.781256596422911E+08, -2.305549292448635E+07,
2460945.500000000, A.D. 2025-Sep-27 00:00:00.0000, -2.403618316259461E+08, -1.874739004980782E+08, -2.295461100350635E+07,
2460952.500000000, A.D. 2025-Oct-04 00:00:00.0000, -2.305565510355785E+08, -1.965035816444533E+08, -2.281472556257771E+07,
2460959.500000000, A.D. 2025-Oct-11 00:00:00.0000, -2.203521730332156E+08, -2.051930677600000E+08, -2.263534380709724E+07,
2460966.500000000, A.D. 2025-Oct-18 00:00:00.0000, -2.097593238754930E+08, -2.135207612248890E+08, -2.241605332144628E+07,
2460973.500000000, A.D. 2025-Oct-25 00:00:00.0000, -1.987900200317319E+08, -2.214652002511324E+08, -2.215652912962912E+07,
2460980.500000000, A.D. 2025-Nov-01 00:00:00.0000, -1.874577018142800E+08, -2.290051650053398E+08, -2.185654070570548E+07,
2460987.500000000, A.D. 2025-Nov-08 00:00:00.0000, -1.757772582519178E+08, -2.361197912650765E+08, -2.151595884292683E+07,
2460994.500000000, A.D. 2025-Nov-15 00:00:00.0000, -1.637650417916825E+08, -2.427886909740039E+08, -2.113476229344198E+07,
2461001.500000000, A.D. 2025-Nov-22 00:00:00.0000, -1.514388711936334E+08, -2.489920785684380E+08, -2.071304408308966E+07,
2461008.500000000, A.D. 2025-Nov-29 00:00:00.0000, -1.388180216122338E+08, -2.547109008107988E+08, -2.025101727359760E+07,
2461015.500000000, A.D. 2025-Dec-06 00:00:00.0000, -1.259232030959818E+08, -2.599269689100241E+08, -1.974901984862761E+07,
2461022.500000000, A.D. 2025-Dec-13 00:00:00.0000, -1.127765261812494E+08, -2.646230947230369E+08, -1.920751891038087E+07,
2461029.500000000, A.D. 2025-Dec-20 00:00:00.0000, -9.940145039352755E+07, -2.687832282342252E+08, -1.862711429517643E+07,
2461036.500000000, A.D. 2025-Dec-27 00:00:00.0000, -8.582271626711139E+07, -2.723925917655575E+08, -1.800854117432967E+07,
2461043.500000000, A.D. 2026-Jan-03 00:00:00.0000, -7.206626214916973E+07, -2.754378094510343E+08, -1.735267144646926E+07,
2461050.500000000, A.D. 2026-Jan-10 00:00:00.0000, -5.815912580451993E+07, -2.779070305025358E+08, -1.666051389543414E+07,
2461057.500000000, A.D. 2026-Jan-17 00:00:00.0000, -4.412933107010145E+07, -2.797900441784206E+08, -1.593321307055265E+07,
2461064.500000000, A.D. 2026-Jan-24 00:00:00.0000, -3.000576032498107E+07, -2.810783842692180E+08, -1.517204684220436E+07,
2461071.500000000, A.D. 2026-Jan-31 00:00:00.0000, -1.581801395084452E+07, -2.817654210280303E+08, -1.437842260563987E+07,
2461078.500000000, A.D. 2026-Feb-07 00:00:00.0000, -1.596258263124657E+06, -2.818464386782369E+08, -1.355387213964929E+07,
2461085.500000000, A.D. 2026-Feb-14 00:00:00.0000, 1.262893647930861E+07, -2.813186968102335E+08, -1.270004516962747E+07,
2461092.500000000, A.D. 2026-Feb-21 00:00:00.0000, 2.682676623198058E+07, -2.801814736708058E+08, -1.181870167904389E+07,
2461099.500000000, A.D. 2026-Feb-28 00:00:00.0000, 4.096636803312851E+07, -2.784360891113353E+08, -1.091170286149348E+07,
2461106.500000000, A.D. 2026-Mar-07 00:00:00.0000, 5.501699498304792E+07, -2.760859084442170E+08, -9.981000798451811E+06,
2461113.500000000, A.D. 2026-Mar-14 00:00:00.0000, 6.894819147363317E+07, -2.731363292523271E+08, -9.028627448517174E+06,
2461120.500000000, A.D. 2026-Mar-21 00:00:00.0000, 8.272996779337583E+07, -2.695947483981513E+08, -8.056683037009999E+06,
2461127.500000000, A.D. 2026-Mar-28 00:00:00.0000, 9.633296949549337E+07, -2.654705087733659E+08, -7.067323756178722E+06,
2461134.500000000, A.D. 2026-Apr-04 00:00:00.0000, 1.097286384550790E+08, -2.607748277268066E+08, -6.062748989552125E+06,
2461141.500000000, A.D. 2026-Apr-11 00:00:00.0000, 1.228893636227477E+08, -2.555207088745778E+08, -5.045188310826153E+06,
2461148.500000000, A.D. 2026-Apr-18 00:00:00.0000, 1.357886196319017E+08, -2.497228389687118E+08, -4.016888468302161E+06,
2461155.500000000, A.D. 2026-Apr-25 00:00:00.0000, 1.484010916155250E+08, -2.433974717459671E+08, -2.980100548352048E+06,
2461162.500000000, A.D. 2026-May-02 00:00:00.0000, 1.607027849227807E+08, -2.365623009208628E+08, -1.937067503564596E+06,
2461169.500000000, A.D. 2026-May-09 00:00:00.0000, 1.726711188961026E+08, -2.292363246549297E+08, -8.900122278925180E+05,
2461176.500000000, A.D. 2026-May-16 00:00:00.0000, 1.842850045061266E+08, -2.214397036989577E+08, 1.588736524029970E+05,
2461183.500000000, A.D. 2026-May-23 00:00:00.0000, 1.955249056837000E+08, -2.131936145214979E+08, 1.207440228149951E+06,
2461190.500000000, A.D. 2026-May-30 00:00:00.0000, 2.063728824026333E+08, -2.045200993677584E+08, 2.253589114232793E+06,
2461197.500000000, A.D. 2026-Jun-06 00:00:00.0000, 2.168126156453343E+08, -1.954419186538425E+08, 3.295282299588874E+06,
2461204.500000000, A.D. 2026-Jun-13 00:00:00.0000, 2.268294186517950E+08, -1.859824074564354E+08, 4.330549668378428E+06,
2461211.500000000, A.D. 2026-Jun-20 00:00:00.0000, 2.364102349266991E+08, -1.761653349309847E+08, 5.357495449796811E+06,
2461218.500000000, A.D. 2026-Jun-27 00:00:00.0000, 2.455436224701982E+08, -1.660147685295196E+08, 6.374303719179630E+06,
2461225.500000000, A.D. 2026-Jul-04 00:00:00.0000, 2.542197255347481E+08, -1.555549450777894E+08, 7.379242901469857E+06,
2461232.500000000, A.D. 2026-Jul-11 00:00:00.0000, 2.624302355571835E+08, -1.448101498771501E+08, 8.370669274669752E+06,
2461239.500000000, A.D. 2026-Jul-18 00:00:00.0000, 2.701683428031256E+08, -1.338046045921608E+08, 9.347029513286918E+06,
2461246.500000000, A.D. 2026-Jul-25 00:00:00.0000, 2.774286802015167E+08, -1.225623644726096E+08, 1.030686232809921E+07,
2461253.500000000, A.D. 2026-Aug-01 00:00:00.0000, 2.842072608429396E+08, -1.111072252910984E+08, 1.124879926101576E+07,
2461260.500000000, A.D. 2026-Aug-08 00:00:00.0000, 2.905014107224273E+08, -9.946264016438252E+07, 1.217156468495316E+07,
2461267.500000000, A.D. 2026-Aug-15 00:00:00.0000, 2.963096984300408E+08, -8.765164575936690E+07, 1.307397508401207E+07,
2461274.500000000, A.D. 2026-Aug-22 00:00:00.0000, 3.016318622314004E+08, -7.569679646621801E+07, 1.395493786415761E+07,
2461281.500000000, A.D. 2026-Aug-29 00:00:00.0000, 3.064687333442088E+08, -6.362010760078491E+07, 1.481344987272754E+07,
2461288.500000000, A.D. 2026-Sep-05 00:00:00.0000, 3.108221585095006E+08, -5.144301009124846E+07, 1.564859527264808E+07,
$$EOE